start=new Date('2022-11-24T00:00:00.000Z').valueOf();
sats=[{"ELEMENT_SET_NO":"999","PERIAPSIS":"346.862","SITE":"AFETR","TLE_LINE1":"1 53871U 22114BF  22328.00001157 -.00071897  00000-0 -50964-3 0  9996","APOAPSIS":"352.057","MEAN_ELEMENT_THEORY":"SGP4","COUNTRY_CODE":"US","BSTAR":"-0.00050964000000","INCLINATION":"53.2152","ARG_OF_PERICENTER":"2.7194","LAUNCH_DATE":"2022-09-19","NORAD_CAT_ID":"53871","RCS_SIZE":"LARGE","PERIOD":"91.527","MEAN_ANOMALY":"65.9468","ECCENTRICITY":"0.00038610","TIME_SYSTEM":"UTC","OBJECT_NAME":"STARLINK-4740","OBJECT_ID":"2022-114BF","REV_AT_EPOCH":"1095","DECAY_DATE":null,"CENTER_NAME":"EARTH","MEAN_MOTION_DDOT":"0.0000000000000","EPOCH":"2022-11-24T00:00:00.999648","MEAN_MOTION_DOT":"-0.00071897","MEAN_MOTION":"15.73305377","SEMIMAJOR_AXIS":"6727.595","TLE_LINE2":"2 53871  53.2152 292.3424 0003861   2.7194  65.9468 15.73305377 10955","OBJECT_TYPE":"PAYLOAD","REF_FRAME":"TEME","GP_ID":"218577989","RA_OF_ASC_NODE":"292.3424","EPHEMERIS_TYPE":"0","FILE":"3668345","CLASSIFICATION_TYPE":"U"},{"MEAN_MOTION_DDOT":"0.0000000000000","CENTER_NAME":"EARTH","DECAY_DATE":null,"REV_AT_EPOCH":"982","TIME_SYSTEM":"UTC","OBJECT_NAME":"STARLINK-5028","MEAN_ANOMALY":"134.7333","ECCENTRICITY":"0.00018270","OBJECT_ID":"2022-119A","PERIOD":"94.381","EPHEMERIS_TYPE":"0","GP_ID":"218573685","RA_OF_ASC_NODE":"319.7206","REF_FRAME":"TEME","CLASSIFICATION_TYPE":"U","FILE":"3668179","OBJECT_TYPE":"PAYLOAD","TLE_LINE2":"2 53886  53.2166 319.7206 0001827  43.6696 134.7333 15.25736885  9828","SEMIMAJOR_AXIS":"6866.711","EPOCH":"2022-11-23T22:00:00.999936","MEAN_MOTION_DOT":"-0.01178342","MEAN_MOTION":"15.25736885","SITE":"AFETR","TLE_LINE1":"1 53886U 22119A   22327.91667824 -.01178342  00000-0 -49489-1 0  9997","APOAPSIS":"489.830","MEAN_ELEMENT_THEORY":"SGP4","ELEMENT_SET_NO":"999","PERIAPSIS":"487.321","RCS_SIZE":"LARGE","NORAD_CAT_ID":"53886","ARG_OF_PERICENTER":"43.6696","INCLINATION":"53.2166","LAUNCH_DATE":"2022-09-24","COUNTRY_CODE":"US","BSTAR":"-0.04948900000000"},{"RCS_SIZE":"LARGE","NORAD_CAT_ID":"53887","ARG_OF_PERICENTER":"41.3941","INCLINATION":"53.2164","LAUNCH_DATE":"2022-09-24","COUNTRY_CODE":"US","BSTAR":"-0.04824200000000","SITE":"AFETR","TLE_LINE1":"1 53887U 22119B   22327.91667824 -.01180528  00000-0 -48242-1 0  9993","APOAPSIS":"486.995","MEAN_ELEMENT_THEORY":"SGP4","ELEMENT_SET_NO":"999","PERIAPSIS":"484.716","RA_OF_ASC_NODE":"319.6465","GP_ID":"218604127","EPHEMERIS_TYPE":"0","REF_FRAME":"TEME","CLASSIFICATION_TYPE":"U","FILE":"3668355","OBJECT_TYPE":"PAYLOAD","TLE_LINE2":"2 53887  53.2164 319.6465 0001660  41.3941 173.9152 15.26643809  1309","SEMIMAJOR_AXIS":"6863.991","EPOCH":"2022-11-23T22:00:00.999936","MEAN_MOTION_DOT":"-0.01180528","MEAN_MOTION":"15.26643809","MEAN_MOTION_DDOT":"0.0000000000000","CENTER_NAME":"EARTH","DECAY_DATE":null,"REV_AT_EPOCH":"130","TIME_SYSTEM":"UTC","OBJECT_NAME":"STARLINK-5029","MEAN_ANOMALY":"173.9152","ECCENTRICITY":"0.00016600","OBJECT_ID":"2022-119B","PERIOD":"94.325"},{"PERIAPSIS":"488.797","ELEMENT_SET_NO":"999","TLE_LINE1":"1 53888U 22119C   22327.91667824 -.00180893  00000-0 -72477-2 0  9996","MEAN_ELEMENT_THEORY":"SGP4","APOAPSIS":"490.819","SITE":"AFETR","LAUNCH_DATE":"2022-09-24","INCLINATION":"53.2164","ARG_OF_PERICENTER":"114.1149","BSTAR":"-0.00724770000000","COUNTRY_CODE":"US","NORAD_CAT_ID":"53888","RCS_SIZE":"LARGE","OBJECT_ID":"2022-119C","ECCENTRICITY":"0.00014720","MEAN_ANOMALY":"77.0779","TIME_SYSTEM":"UTC","OBJECT_NAME":"STARLINK-5034","PERIOD":"94.406","CENTER_NAME":"EARTH","DECAY_DATE":null,"MEAN_MOTION_DDOT":"0.0000000000000","REV_AT_EPOCH":"982","SEMIMAJOR_AXIS":"6867.943","TLE_LINE2":"2 53888  53.2164 319.6943 0001472 114.1149  77.0779 15.25326161  9823","MEAN_MOTION_DOT":"-0.00180893","MEAN_MOTION":"15.25326161","EPOCH":"2022-11-23T22:00:00.999936","FILE":"3668179","CLASSIFICATION_TYPE":"U","REF_FRAME":"TEME","RA_OF_ASC_NODE":"319.6943","GP_ID":"218574008","EPHEMERIS_TYPE":"0","OBJECT_TYPE":"PAYLOAD"},{"SITE":"AFETR","TLE_LINE1":"1 53889U 22119D   22327.91667824 -.01159034  00000-0 -47747-1 0  9992","APOAPSIS":"487.980","MEAN_ELEMENT_THEORY":"SGP4","ELEMENT_SET_NO":"999","PERIAPSIS":"485.622","RCS_SIZE":"LARGE","NORAD_CAT_ID":"53889","ARG_OF_PERICENTER":"46.1942","INCLINATION":"53.2165","LAUNCH_DATE":"2022-09-24","COUNTRY_CODE":"US","BSTAR":"-0.04774700000000","MEAN_MOTION_DDOT":"0.0000000000000","DECAY_DATE":null,"CENTER_NAME":"EARTH","REV_AT_EPOCH":"982","TIME_SYSTEM":"UTC","OBJECT_NAME":"STARLINK-5031","ECCENTRICITY":"0.00017180","MEAN_ANOMALY":"156.9038","OBJECT_ID":"2022-119D","PERIOD":"94.344","GP_ID":"218573691","EPHEMERIS_TYPE":"0","RA_OF_ASC_NODE":"319.6709","REF_FRAME":"TEME","CLASSIFICATION_TYPE":"U","FILE":"3668179","OBJECT_TYPE":"PAYLOAD","TLE_LINE2":"2 53889  53.2165 319.6709 0001718  46.1942 156.9038 15.26328531  9822","SEMIMAJOR_AXIS":"6864.936","EPOCH":"2022-11-23T22:00:00.999936","MEAN_MOTION_DOT":"-0.01159034","MEAN_MOTION":"15.26328531"},{"EPOCH":"2022-11-23T22:00:00.999936","MEAN_MOTION":"15.73213592","MEAN_MOTION_DOT":"0.00032171","TLE_LINE2":"2 53890  53.2145 314.8079 0005139 318.3278 151.5474 15.73213592  9890","SEMIMAJOR_AXIS":"6727.856","OBJECT_TYPE":"PAYLOAD","GP_ID":"218574114","EPHEMERIS_TYPE":"0","RA_OF_ASC_NODE":"314.8079","REF_FRAME":"TEME","CLASSIFICATION_TYPE":"U","FILE":"3668189","PERIOD":"91.532","OBJECT_NAME":"STARLINK-5050","TIME_SYSTEM":"UTC","MEAN_ANOMALY":"151.5474","ECCENTRICITY":"0.00051390","OBJECT_ID":"2022-119E","REV_AT_EPOCH":"989","MEAN_MOTION_DDOT":"0.0000000000000","DECAY_DATE":null,"CENTER_NAME":"EARTH","COUNTRY_CODE":"US","BSTAR":"0.00023250000000","ARG_OF_PERICENTER":"318.3278","INCLINATION":"53.2145","LAUNCH_DATE":"2022-09-24","RCS_SIZE":"LARGE","NORAD_CAT_ID":"53890","ELEMENT_SET_NO":"999","PERIAPSIS":"346.264","SITE":"AFETR","MEAN_ELEMENT_THEORY":"SGP4","TLE_LINE1":"1 53890U 22119E   22327.91667824  .00032171  00000-0  23250-3 0  9998","APOAPSIS":"353.179"},{"ELEMENT_SET_NO":"999","PERIAPSIS":"483.836","TLE_LINE1":"1 53891U 22119F   22327.91667824 -.01168784  00000-0 -47309-1 0  9991","MEAN_ELEMENT_THEORY":"SGP4","APOAPSIS":"486.168","SITE":"AFETR","LAUNCH_DATE":"2022-09-24","INCLINATION":"53.2165","ARG_OF_PERICENTER":"40.5715","BSTAR":"-0.04730900000000","COUNTRY_CODE":"US","NORAD_CAT_ID":"53891","RCS_SIZE":"LARGE","OBJECT_ID":"2022-119F","MEAN_ANOMALY":"186.9952","ECCENTRICITY":"0.00016990","OBJECT_NAME":"STARLINK-5041","TIME_SYSTEM":"UTC","PERIOD":"94.307","DECAY_DATE":null,"CENTER_NAME":"EARTH","MEAN_MOTION_DDOT":"0.0000000000000","REV_AT_EPOCH":"130","SEMIMAJOR_AXIS":"6863.137","TLE_LINE2":"2 53891  53.2165 319.6224 0001699  40.5715 186.9952 15.26928768  1302","MEAN_MOTION":"15.26928768","MEAN_MOTION_DOT":"-0.01168784","EPOCH":"2022-11-23T22:00:00.999936","FILE":"3668355","CLASSIFICATION_TYPE":"U","REF_FRAME":"TEME","GP_ID":"218603809","EPHEMERIS_TYPE":"0","RA_OF_ASC_NODE":"319.6224","OBJECT_TYPE":"PAYLOAD"},{"ELEMENT_SET_NO":"999","PERIAPSIS":"465.080","TLE_LINE1":"1 53892U 22119G   22327.91667824 -.00916006  00000-0 -30728-1 0  9996","MEAN_ELEMENT_THEORY":"SGP4","APOAPSIS":"467.551","SITE":"AFETR","LAUNCH_DATE":"2022-09-24","INCLINATION":"53.2166","ARG_OF_PERICENTER":"34.3859","BSTAR":"-0.03072800000000","COUNTRY_CODE":"US","NORAD_CAT_ID":"53892","RCS_SIZE":"LARGE","OBJECT_ID":"2022-119G","ECCENTRICITY":"0.00018050","MEAN_ANOMALY":"313.7293","TIME_SYSTEM":"UTC","OBJECT_NAME":"STARLINK-5046","PERIOD":"93.922","CENTER_NAME":"EARTH","DECAY_DATE":null,"MEAN_MOTION_DDOT":"0.0000000000000","REV_AT_EPOCH":"982","SEMIMAJOR_AXIS":"6844.451","TLE_LINE2":"2 53892  53.2166 319.3897 0001805  34.3859 313.7293 15.33186128  9823","MEAN_MOTION_DOT":"-0.00916006","MEAN_MOTION":"15.33186128","EPOCH":"2022-11-23T22:00:00.999936","FILE":"3668181","CLASSIFICATION_TYPE":"U","REF_FRAME":"TEME","EPHEMERIS_TYPE":"0","GP_ID":"218573712","RA_OF_ASC_NODE":"319.3897","OBJECT_TYPE":"PAYLOAD"},{"ELEMENT_SET_NO":"999","PERIAPSIS":"481.097","APOAPSIS":"483.537","TLE_LINE1":"1 53893U 22119H   22327.91667824 -.01145890  00000-0 -45705-1 0  9994","MEAN_ELEMENT_THEORY":"SGP4","SITE":"AFETR","BSTAR":"-0.04570500000000","COUNTRY_CODE":"US","LAUNCH_DATE":"2022-09-24","INCLINATION":"53.2162","ARG_OF_PERICENTER":"35.2866","NORAD_CAT_ID":"53893","RCS_SIZE":"LARGE","PERIOD":"94.252","OBJECT_ID":"2022-119H","ECCENTRICITY":"0.00017780","MEAN_ANOMALY":"227.6992","TIME_SYSTEM":"UTC","OBJECT_NAME":"STARLINK-5052","REV_AT_EPOCH":"982","DECAY_DATE":null,"CENTER_NAME":"EARTH","MEAN_MOTION_DDOT":"0.0000000000000","MEAN_MOTION_DOT":"-0.01145890","MEAN_MOTION":"15.27825252","EPOCH":"2022-11-23T22:00:00.999936","SEMIMAJOR_AXIS":"6860.452","TLE_LINE2":"2 53893  53.2162 319.5517 0001778  35.2866 227.6992 15.27825252  9828","OBJECT_TYPE":"PAYLOAD","FILE":"3668181","CLASSIFICATION_TYPE":"U","REF_FRAME":"TEME","EPHEMERIS_TYPE":"0","GP_ID":"218574029","RA_OF_ASC_NODE":"319.5517"},{"TLE_LINE2":"2 53894  53.2165 319.5992 0001678  45.9809 193.5548 15.27223160  9821","SEMIMAJOR_AXIS":"6862.255","MEAN_MOTION_DOT":"-0.01145692","MEAN_MOTION":"15.27223160","EPOCH":"2022-11-23T22:00:00.999936","CLASSIFICATION_TYPE":"U","FILE":"3668181","GP_ID":"218574035","RA_OF_ASC_NODE":"319.5992","EPHEMERIS_TYPE":"0","REF_FRAME":"TEME","OBJECT_TYPE":"PAYLOAD","OBJECT_ID":"2022-119J","OBJECT_NAME":"STARLINK-5043","TIME_SYSTEM":"UTC","MEAN_ANOMALY":"193.5548","ECCENTRICITY":"0.00016780","PERIOD":"94.289","MEAN_MOTION_DDOT":"0.0000000000000","DECAY_DATE":null,"CENTER_NAME":"EARTH","REV_AT_EPOCH":"982","LAUNCH_DATE":"2022-09-24","ARG_OF_PERICENTER":"45.9809","INCLINATION":"53.2165","BSTAR":"-0.04654900000000","COUNTRY_CODE":"US","RCS_SIZE":"LARGE","NORAD_CAT_ID":"53894","ELEMENT_SET_NO":"999","PERIAPSIS":"482.968","MEAN_ELEMENT_THEORY":"SGP4","TLE_LINE1":"1 53894U 22119J   22327.91667824 -.01145692  00000-0 -46549-1 0  9992","APOAPSIS":"485.271","SITE":"AFETR"}];
